start=new Date('2021-09-26T00:00:00.000Z').valueOf();
sats=[{"MEAN_MOTION_DDOT":"0.0000000000000","GP_ID":"185503974","MEAN_MOTION_DOT":"0.00000384","ELEMENT_SET_NO":"999","CENTER_NAME":"EARTH","INCLINATION":"53.0536","SITE":"AFETR","TIME_SYSTEM":"UTC","LAUNCH_DATE":"2020-04-22","CLASSIFICATION_TYPE":"U","FILE":"3128274","EPOCH":"2021-09-25T10:30:52.900128","APOAPSIS":"548.520","REV_AT_EPOCH":"8039","PERIOD":"95.592","RA_OF_ASC_NODE":"177.1508","MEAN_ANOMALY":"290.0138","OBJECT_TYPE":"PAYLOAD","OBJECT_ID":"2020-025BE","COUNTRY_CODE":"US","EPHEMERIS_TYPE":"0","PERIAPSIS":"545.912","TLE_LINE1":"1 45583U 20025BE  21268.43811227  .00000384  00000-0  44656-4 0  9995","OBJECT_NAME":"STARLINK-1340","ECCENTRICITY":"0.00018830","TLE_LINE2":"2 45583  53.0536 177.1508 0001883  70.1054 290.0138 15.06399305 80399","DECAY_DATE":null,"RCS_SIZE":"LARGE","MEAN_MOTION":"15.06399305","ARG_OF_PERICENTER":"70.1054","MEAN_ELEMENT_THEORY":"SGP4","REF_FRAME":"TEME","NORAD_CAT_ID":"45583","SEMIMAJOR_AXIS":"6925.351","BSTAR":"0.00004465600000"},{"TIME_SYSTEM":"UTC","LAUNCH_DATE":"2020-04-22","SITE":"AFETR","INCLINATION":"53.0534","REV_AT_EPOCH":"7973","CLASSIFICATION_TYPE":"U","APOAPSIS":"548.496","FILE":"3127710","EPOCH":"2021-09-25T00:41:42.417888","MEAN_MOTION_DDOT":"0.0000000000000","GP_ID":"185471769","CENTER_NAME":"EARTH","ELEMENT_SET_NO":"999","MEAN_MOTION_DOT":"0.00000107","DECAY_DATE":null,"RCS_SIZE":"LARGE","TLE_LINE2":"2 45584  53.0534 178.9854 0001899  67.5015 292.6175 15.06410768 79737","SEMIMAJOR_AXIS":"6925.316","NORAD_CAT_ID":"45584","BSTAR":"0.00002610100000","MEAN_ELEMENT_THEORY":"SGP4","REF_FRAME":"TEME","MEAN_MOTION":"15.06410768","ARG_OF_PERICENTER":"67.5015","RA_OF_ASC_NODE":"178.9854","MEAN_ANOMALY":"292.6175","PERIOD":"95.591","EPHEMERIS_TYPE":"0","COUNTRY_CODE":"US","ECCENTRICITY":"0.00018990","TLE_LINE1":"1 45584U 20025BF  21268.02896317  .00000107  00000-0  26101-4 0  9992","PERIAPSIS":"545.865","OBJECT_NAME":"STARLINK-1343","OBJECT_TYPE":"PAYLOAD","OBJECT_ID":"2020-025BF"},{"PERIOD":"95.592","RA_OF_ASC_NODE":"177.1370","MEAN_ANOMALY":"279.3083","OBJECT_ID":"2020-025BG","OBJECT_TYPE":"PAYLOAD","COUNTRY_CODE":"US","EPHEMERIS_TYPE":"0","PERIAPSIS":"545.815","TLE_LINE1":"1 45585U 20025BG  21268.44181849 -.00001037  00000-0 -50692-4 0  9993","ECCENTRICITY":"0.00020350","OBJECT_NAME":"STARLINK-1345","TLE_LINE2":"2 45585  53.0549 177.1370 0002035  80.8136 279.3083 15.06396409 80392","DECAY_DATE":null,"RCS_SIZE":"LARGE","MEAN_MOTION":"15.06396409","ARG_OF_PERICENTER":"80.8136","REF_FRAME":"TEME","MEAN_ELEMENT_THEORY":"SGP4","NORAD_CAT_ID":"45585","SEMIMAJOR_AXIS":"6925.360","BSTAR":"-0.00005069200000","MEAN_MOTION_DDOT":"0.0000000000000","GP_ID":"185504976","MEAN_MOTION_DOT":"-0.00001037","ELEMENT_SET_NO":"999","CENTER_NAME":"EARTH","SITE":"AFETR","INCLINATION":"53.0549","LAUNCH_DATE":"2020-04-22","TIME_SYSTEM":"UTC","CLASSIFICATION_TYPE":"U","FILE":"3128274","EPOCH":"2021-09-25T10:36:13.117536","APOAPSIS":"548.634","REV_AT_EPOCH":"8039"},{"MEAN_MOTION_DOT":"0.00000579","CENTER_NAME":"EARTH","ELEMENT_SET_NO":"999","MEAN_MOTION_DDOT":"0.0000000000000","GP_ID":"185505226","CLASSIFICATION_TYPE":"U","APOAPSIS":"548.753","EPOCH":"2021-09-25T10:46:49.286784","FILE":"3128274","REV_AT_EPOCH":"8038","INCLINATION":"53.0555","SITE":"AFETR","TIME_SYSTEM":"UTC","LAUNCH_DATE":"2020-04-22","OBJECT_ID":"2020-025BH","OBJECT_TYPE":"PAYLOAD","EPHEMERIS_TYPE":"0","COUNTRY_CODE":"US","ECCENTRICITY":"0.00022180","TLE_LINE1":"1 45586U 20025BH  21268.44918156  .00000579  00000-0  57756-4 0  9999","PERIAPSIS":"545.681","OBJECT_NAME":"STARLINK-1347","PERIOD":"95.592","RA_OF_ASC_NODE":"177.0815","MEAN_ANOMALY":"282.2901","MEAN_MOTION":"15.06398738","ARG_OF_PERICENTER":"77.8336","SEMIMAJOR_AXIS":"6925.352","NORAD_CAT_ID":"45586","BSTAR":"0.00005775600000","MEAN_ELEMENT_THEORY":"SGP4","REF_FRAME":"TEME","TLE_LINE2":"2 45586  53.0555 177.0815 0002218  77.8336 282.2901 15.06398738 80382","DECAY_DATE":null,"RCS_SIZE":"LARGE"},{"EPHEMERIS_TYPE":"0","COUNTRY_CODE":"US","PERIAPSIS":"545.881","TLE_LINE1":"1 45587U 20025BJ  21268.48604500 -.00000209  00000-0  48981-5 0  9991","ECCENTRICITY":"0.00019690","OBJECT_NAME":"STARLINK-1349","OBJECT_ID":"2020-025BJ","OBJECT_TYPE":"PAYLOAD","RA_OF_ASC_NODE":"176.9432","MEAN_ANOMALY":"287.1200","PERIOD":"95.593","SEMIMAJOR_AXIS":"6925.379","NORAD_CAT_ID":"45587","BSTAR":"0.00000489810000","MEAN_ELEMENT_THEORY":"SGP4","REF_FRAME":"TEME","MEAN_MOTION":"15.06389995","ARG_OF_PERICENTER":"73.0004","RCS_SIZE":"LARGE","DECAY_DATE":null,"TLE_LINE2":"2 45587  53.0558 176.9432 0001969  73.0004 287.1200 15.06389995 80405","CENTER_NAME":"EARTH","ELEMENT_SET_NO":"999","MEAN_MOTION_DOT":"-0.00000209","MEAN_MOTION_DDOT":"0.0000000000000","GP_ID":"185504475","REV_AT_EPOCH":"8040","CLASSIFICATION_TYPE":"U","APOAPSIS":"548.608","EPOCH":"2021-09-25T11:39:54.288000","FILE":"3128274","LAUNCH_DATE":"2020-04-22","TIME_SYSTEM":"UTC","SITE":"AFETR","INCLINATION":"53.0558"},{"EPHEMERIS_TYPE":"0","COUNTRY_CODE":"US","TLE_LINE1":"1 45588U 20025BK  21268.46392651  .00000745  00000-0  68890-4 0  9995","PERIAPSIS":"545.571","OBJECT_NAME":"STARLINK-1360","ECCENTRICITY":"0.00023550","OBJECT_TYPE":"PAYLOAD","OBJECT_ID":"2020-025BK","RA_OF_ASC_NODE":"177.0382","MEAN_ANOMALY":"299.8287","PERIOD":"95.592","BSTAR":"0.00006889000000","SEMIMAJOR_AXIS":"6925.337","NORAD_CAT_ID":"45588","MEAN_ELEMENT_THEORY":"SGP4","REF_FRAME":"TEME","MEAN_MOTION":"15.06403852","ARG_OF_PERICENTER":"60.2936","DECAY_DATE":null,"RCS_SIZE":"LARGE","TLE_LINE2":"2 45588  53.0545 177.0382 0002355  60.2936 299.8287 15.06403852 80392","CENTER_NAME":"EARTH","ELEMENT_SET_NO":"999","MEAN_MOTION_DOT":"0.00000745","MEAN_MOTION_DDOT":"0.0000000000000","GP_ID":"185504725","REV_AT_EPOCH":"8039","CLASSIFICATION_TYPE":"U","APOAPSIS":"548.833","FILE":"3128274","EPOCH":"2021-09-25T11:08:03.250464","LAUNCH_DATE":"2020-04-22","TIME_SYSTEM":"UTC","INCLINATION":"53.0545","SITE":"AFETR"},{"PERIOD":"95.592","RA_OF_ASC_NODE":"177.0532","MEAN_ANOMALY":"285.9938","OBJECT_ID":"2020-025BL","OBJECT_TYPE":"PAYLOAD","EPHEMERIS_TYPE":"0","COUNTRY_CODE":"US","TLE_LINE1":"1 45589U 20025BL  21268.46023611 -.00000025  00000-0  17241-4 0  9999","PERIAPSIS":"545.920","OBJECT_NAME":"STARLINK-1364","ECCENTRICITY":"0.00018900","TLE_LINE2":"2 45589  53.0545 177.0532 0001890  74.1259 285.9938 15.06395042 80395","RCS_SIZE":"LARGE","DECAY_DATE":null,"MEAN_MOTION":"15.06395042","ARG_OF_PERICENTER":"74.1259","NORAD_CAT_ID":"45589","SEMIMAJOR_AXIS":"6925.364","BSTAR":"0.00001724100000","MEAN_ELEMENT_THEORY":"SGP4","REF_FRAME":"TEME","MEAN_MOTION_DDOT":"0.0000000000000","GP_ID":"185505477","MEAN_MOTION_DOT":"-0.00000025","CENTER_NAME":"EARTH","ELEMENT_SET_NO":"999","SITE":"AFETR","INCLINATION":"53.0545","TIME_SYSTEM":"UTC","LAUNCH_DATE":"2020-04-22","CLASSIFICATION_TYPE":"U","APOAPSIS":"548.538","EPOCH":"2021-09-25T11:02:44.399904","FILE":"3128274","REV_AT_EPOCH":"8039"},{"EPOCH":"2021-09-25T13:00:50.620320","FILE":"3128274","APOAPSIS":"548.421","CLASSIFICATION_TYPE":"U","REV_AT_EPOCH":"8000","INCLINATION":"53.0552","SITE":"AFETR","LAUNCH_DATE":"2020-04-22","TIME_SYSTEM":"UTC","MEAN_MOTION_DOT":"0.00000124","ELEMENT_SET_NO":"999","CENTER_NAME":"EARTH","GP_ID":"185505727","MEAN_MOTION_DDOT":"0.0000000000000","ARG_OF_PERICENTER":"74.0284","MEAN_MOTION":"15.06390307","MEAN_ELEMENT_THEORY":"SGP4","REF_FRAME":"TEME","SEMIMAJOR_AXIS":"6925.378","NORAD_CAT_ID":"45590","BSTAR":"0.00002726400000","TLE_LINE2":"2 45590  53.0552 206.6838 0001700  74.0284 286.0892 15.06390307 80008","DECAY_DATE":null,"RCS_SIZE":"LARGE","OBJECT_TYPE":"PAYLOAD","OBJECT_ID":"2020-025BM","TLE_LINE1":"1 45590U 20025BM  21268.54225255  .00000124  00000-0  27264-4 0  9993","ECCENTRICITY":"0.00017000","PERIAPSIS":"546.066","OBJECT_NAME":"STARLINK-1365","COUNTRY_CODE":"US","EPHEMERIS_TYPE":"0","PERIOD":"95.593","MEAN_ANOMALY":"286.0892","RA_OF_ASC_NODE":"206.6838"},{"MEAN_MOTION":"15.06396425","ARG_OF_PERICENTER":"68.3147","SEMIMAJOR_AXIS":"6925.360","BSTAR":"-0.00008736900000","NORAD_CAT_ID":"45658","REF_FRAME":"TEME","MEAN_ELEMENT_THEORY":"SGP4","TLE_LINE2":"2 45658  53.0540 167.0993 0001837  68.3147 291.8037 15.06396425 73629","RCS_SIZE":"LARGE","DECAY_DATE":null,"OBJECT_ID":"2020-035B","OBJECT_TYPE":"PAYLOAD","EPHEMERIS_TYPE":"0","COUNTRY_CODE":"US","OBJECT_NAME":"STARLINK-1441","TLE_LINE1":"1 45658U 20035B   21268.45010274 -.00001583  00000-0 -87369-4 0  9996","PERIAPSIS":"545.952","ECCENTRICITY":"0.00018370","PERIOD":"95.592","RA_OF_ASC_NODE":"167.0993","MEAN_ANOMALY":"291.8037","CLASSIFICATION_TYPE":"U","APOAPSIS":"548.497","EPOCH":"2021-09-25T10:48:08.876736","FILE":"3128274","REV_AT_EPOCH":"7362","SITE":"AFETR","INCLINATION":"53.0540","LAUNCH_DATE":"2020-06-04","TIME_SYSTEM":"UTC","MEAN_MOTION_DOT":"-0.00001583","CENTER_NAME":"EARTH","ELEMENT_SET_NO":"999","MEAN_MOTION_DDOT":"0.0000000000000","GP_ID":"185503981"},{"CENTER_NAME":"EARTH","ELEMENT_SET_NO":"999","MEAN_MOTION_DOT":"-0.00000092","MEAN_MOTION_DDOT":"0.0000000000000","GP_ID":"185504231","REV_AT_EPOCH":"7361","CLASSIFICATION_TYPE":"U","APOAPSIS":"548.610","EPOCH":"2021-09-25T10:58:46.449120","FILE":"3128274","TIME_SYSTEM":"UTC","LAUNCH_DATE":"2020-06-04","SITE":"AFETR","INCLINATION":"53.0545","EPHEMERIS_TYPE":"0","COUNTRY_CODE":"US","TLE_LINE1":"1 45659U 20035C   21268.45748205 -.00000092  00000-0  12725-4 0  9996","ECCENTRICITY":"0.00020110","PERIAPSIS":"545.825","OBJECT_NAME":"STARLINK-1442","OBJECT_TYPE":"PAYLOAD","OBJECT_ID":"2020-035C","RA_OF_ASC_NODE":"167.0605","MEAN_ANOMALY":"287.2148","PERIOD":"95.592","SEMIMAJOR_AXIS":"6925.352","BSTAR":"0.00001272500000","NORAD_CAT_ID":"45659","MEAN_ELEMENT_THEORY":"SGP4","REF_FRAME":"TEME","MEAN_MOTION":"15.06398754","ARG_OF_PERICENTER":"72.9061","RCS_SIZE":"LARGE","DECAY_DATE":null,"TLE_LINE2":"2 45659  53.0545 167.0605 0002011  72.9061 287.2148 15.06398754 73614"}];
